QIANFAN-41              
1 62242U 24232F   25227.51785037  .00000056  00000+0  67369-4 0  9998
2 62242  88.9930  53.2407 0014261 168.0904 192.0587 13.50960602 83159
QIANFAN-42              
1 62243U 24232G   25227.55867010  .00000134  00000+0  51450-4 0  9996
2 62243  88.9930  50.9805 0017172 111.2421 249.0607 14.24337271 84401
QIANFAN-43              
1 62244U 24232H   25227.51375729  .00000056  00000+0  68606-4 0  9998
2 62244  88.9935  53.3012 0015582 174.0043 186.1297 13.50953358 51761
QIANFAN-44              
1 62245U 24232J   25227.57546567  .00000043  00000+0  47664-4 0  9992
2 62245  88.9933  53.1074 0013923 169.9882 190.1549 13.50963232 83242
QIANFAN-45              
1 62246U 24232K   25227.54255756  .00000044  00000+0  49725-4 0  9998
2 62246  88.9937  53.2532 0014578 170.1602 189.9838 13.50959011 83166
QIANFAN-46              
1 62247U 24232L   25227.56722692  .00000036  00000+0  37033-4 0  9999
2 62247  88.9933  53.3246 0014449 175.5059 184.6225 13.50961035 83125
QIANFAN-47              
1 62248U 24232M   25227.57127102  .00000043  00000+0  47556-4 0  9995
2 62248  88.9929  53.2619 0014908 174.8546 185.2761 13.50960812 83154
QIANFAN-48              
1 62249U 24232N   25227.53431545  .00000045  00000+0  50918-4 0  9999
2 62249  88.9933  53.2628 0017062 178.5933 181.5269 13.50963761 83153
